$$SOE
2460721.500000000, A.D. 2025-Feb-15 00:00:00.0000, -3.552744590546874E+08, -1.432018422034170E+07, 7.013368397146160E+06,
2460728.500000000, A.D. 2025-Feb-22 00:00:00.0000, -3.541681779808692E+08, -2.545159501652552E+07, 6.858300048399881E+06,
2460735.500000000, A.D. 2025-Mar-01 00:00:00.0000, -3.526780817295387E+08, -3.655545638894954E+07, 6.695799466807845E+06,
2460742.500000000, A.D. 2025-Mar-08 00:00:00.0000, -3.508041090605053E+08, -4.761956160521782E+07, 6.526010689725781E+06,
2460749.500000000, A.D. 2025-Mar-15 00:00:00.0000, -3.485465170554112E+08, -5.863162480384184E+07, 6.349085140218753E+06,
2460756.500000000, A.D. 2025-Mar-22 00:00:00.0000, -3.459058902207987E+08, -6.957928378337538E+07, 6.165181971508555E+06,
2460763.500000000, A.D. 2025-Mar-29 00:00:00.0000, -3.428831486342800E+08, -8.045010541498610E+07, 5.974468106029380E+06,
2460770.500000000, A.D. 2025-Apr-05 00:00:00.0000, -3.394795547947780E+08, -9.123159057017240E+07, 5.777118195374485E+06,
2460777.500000000, A.D. 2025-Apr-12 00:00:00.0000, -3.356967210763358E+08, -1.019111784971280E+08, 5.573314685641821E+06,
2460784.500000000, A.D. 2025-Apr-19 00:00:00.0000, -3.315366179482995E+08, -1.124762515778227E+08, 5.363247931849271E+06,
2460791.500000000, A.D. 2025-Apr-26 00:00:00.0000, -3.270015826767806E+08, -1.229141407258104E+08, 5.147116318169929E+06,
2460798.500000000, A.D. 2025-May-03 00:00:00.0000, -3.220943283868080E+08, -1.332121314602318E+08, 4.925126373748556E+06,
2460805.500000000, A.D. 2025-May-10 00:00:00.0000, -3.168179534481081E+08, -1.433574706973486E+08, 4.697492881175824E+06,
2460812.500000000, A.D. 2025-May-17 00:00:00.0000, -3.111759511327092E+08, -1.533373743477945E+08, 4.464438970030740E+06,
2460819.500000000, A.D. 2025-May-24 00:00:00.0000, -3.051722193473970E+08, -1.631390358208827E+08, 4.226196174164660E+06,
2460826.500000000, A.D. 2025-May-31 00:00:00.0000, -2.988110699927368E+08, -1.727496351730432E+08, 3.983004438746564E+06,
2460833.500000000, A.D. 2025-Jun-07 00:00:00.0000, -2.920972383120403E+08, -1.821563477450780E+08, 3.735112211038165E+06,
2460840.500000000, A.D. 2025-Jun-14 00:00:00.0000, -2.850358945507780E+08, -1.913463530068973E+08, 3.482776775695898E+06,
2460847.500000000, A.D. 2025-Jun-21 00:00:00.0000, -2.776326566626661E+08, -2.003068469366836E+08, 3.226264453766048E+06,
2460854.500000000, A.D. 2025-Jun-28 00:00:00.0000, -2.698936008853471E+08, -2.090250562258562E+08, 2.965850520944312E+06,
2460861.500000000, A.D. 2025-Jul-05 00:00:00.0000, -2.618252716461445E+08, -2.174882522055341E+08, 2.701819159022480E+06,
2460868.500000000, A.D. 2025-Jul-12 00:00:00.0000, -2.534346919225747E+08, -2.256837653495465E+08, 2.434463482354552E+06,
2460875.500000000, A.D. 2025-Jul-19 00:00:00.0000, -2.447293737934081E+08, -2.335990009797047E+08, 2.164085572820038E+06,
2460882.500000000, A.D. 2025-Jul-26 00:00:00.0000, -2.357173288907281E+08, -2.412214562819385E+08, 1.890996496925741E+06,
2460889.500000000, A.D. 2025-Aug-02 00:00:00.0000, -2.264070786034444E+08, -2.485387386613782E+08, 1.615516298480079E+06,
2460896.500000000, A.D. 2025-Aug-09 00:00:00.0000, -2.168076639170929E+08, -2.555385854955990E+08, 1.337973961353198E+06,
2460903.500000000, A.D. 2025-Aug-16 00:00:00.0000, -2.069286547118307E+08, -2.622088853887353E+08, 1.058707327886671E+06,
2460910.500000000, A.D. 2025-Aug-23 00:00:00.0000, -1.967801581158044E+08, -2.685377009445301E+08, 7.780629451064318E+05,
2460917.500000000, A.D. 2025-Aug-30 00:00:00.0000, -1.863728254661699E+08, -2.745132923726835E+08, 4.963958644762337E+05,
2460924.500000000, A.D. 2025-Sep-06 00:00:00.0000, -1.757178591677834E+08, -2.801241409483756E+08, 2.140696044644564E+05,
2460931.500000000, A.D. 2025-Sep-13 00:00:00.0000, -1.648270209821332E+08, -2.853589748197175E+08, -6.854377659083903E+04,
2460938.500000000, A.D. 2025-Sep-20 00:00:00.0000, -1.537126383279310E+08, -2.902067988133892E+08, -3.510639349491745E+05,
2460945.500000000, A.D. 2025-Sep-27 00:00:00.0000, -1.423876073842188E+08, -2.946569251229125E+08, -6.331026688256264E+05,
2460952.500000000, A.D. 2025-Oct-04 00:00:00.0000, -1.308653948545241E+08, -2.986990043211781E+08, -9.142642921507955E+05,
2460959.500000000, A.D. 2025-Oct-11 00:00:00.0000, -1.191600385996910E+08, -3.023230576048908E+08, -1.194146000115439E+06,
2460966.500000000, A.D. 2025-Oct-18 00:00:00.0000, -1.072861466823975E+08, -3.055195104930797E+08, -1.472338277743727E+06,
2460973.500000000, A.D. 2025-Oct-25 00:00:00.0000, -9.525889450374347E+07, -3.082792279000162E+08, -1.748425366537794E+06,
2460980.500000000, A.D. 2025-Nov-01 00:00:00.0000, -8.309401980886091E+07, -3.105935504830208E+08, -2.021985794701904E+06,
2460987.500000000, A.D. 2025-Nov-08 00:00:00.0000, -7.080781534364741E+07, -3.124543321943066E+08, -2.292592979353413E+06,
2460994.500000000, A.D. 2025-Nov-15 00:00:00.0000, -5.841711883244650E+07, -3.138539789706279E+08, -2.559815921280801E+06,
2461001.500000000, A.D. 2025-Nov-22 00:00:00.0000, -4.593929969296256E+07, -3.147854881920457E+08, -2.823220013170257E+06,
2461008.500000000, A.D. 2025-Nov-29 00:00:00.0000, -3.339224246423797E+07, -3.152424876023557E+08, -3.082367856208116E+06,
2461015.500000000, A.D. 2025-Dec-06 00:00:00.0000, -2.079432905426408E+07, -3.152192736293558E+08, -3.336819888675898E+06,
2461022.500000000, A.D. 2025-Dec-13 00:00:00.0000, -8.164419211802503E+06, -3.147108522531139E+08, -3.586135142794505E+06,
2461029.500000000, A.D. 2025-Dec-20 00:00:00.0000, 4.478174417107671E+06, -3.137129811564768E+08, -3.829872366788417E+06,
2461036.500000000, A.D. 2025-Dec-27 00:00:00.0000, 1.711371569795143E+07, -3.122222102980890E+08, -4.067591200739518E+06,
2461043.500000000, A.D. 2026-Jan-03 00:00:00.0000, 2.972207752301556E+07, -3.102359212210377E+08, -4.298853320476949E+06,
2461050.500000000, A.D. 2026-Jan-10 00:00:00.0000, 4.228277762267955E+07, -3.077523654406652E+08, -4.523223612382531E+06,
2461057.500000000, A.D. 2026-Jan-17 00:00:00.0000, 5.477501796549697E+07, -3.047707016450303E+08, -4.740271405274034E+06,
2461064.500000000, A.D. 2026-Jan-24 00:00:00.0000, 6.717772785927120E+07, -3.012910313173927E+08, -4.949571761908919E+06,
2461071.500000000, A.D. 2026-Jan-31 00:00:00.0000, 7.946961077320328E+07, -2.973144324156665E+08, -5.150706829238176E+06,
2461078.500000000, A.D. 2026-Feb-07 00:00:00.0000, 9.162919489292683E+07, -2.928429907868221E+08, -5.343267252268448E+06,
2461085.500000000, A.D. 2026-Feb-14 00:00:00.0000, 1.036348875621302E+08, -2.878798289415026E+08, -5.526853668462083E+06,
2461092.500000000, A.D. 2026-Feb-21 00:00:00.0000, 1.154650338502114E+08, -2.824291312107410E+08, -5.701078262251288E+06,
2461099.500000000, A.D. 2026-Feb-28 00:00:00.0000, 1.270979779658784E+08, -2.764961637248357E+08, -5.865566176577836E+06,
2461106.500000000, A.D. 2026-Mar-07 00:00:00.0000, 1.385121252150927E+08, -2.700872907601577E+08, -6.019956742374912E+06,
2461113.500000000, A.D. 2026-Mar-14 00:00:00.0000, 1.496860069888412E+08, -2.632099893951090E+08, -6.163904961090550E+06,
2461120.500000000, A.D. 2026-Mar-21 00:00:00.0000, 1.605983502258630E+08, -2.558728592122487E+08, -6.297083155839249E+06,
2461127.500000000, A.D. 2026-Mar-28 00:00:00.0000, 1.712281489526434E+08, -2.480856256845512E+08, -6.419182510742158E+06,
2461134.500000000, A.D. 2026-Apr-04 00:00:00.0000, 1.815547368596901E+08, -2.398591379121585E+08, -6.529914509344280E+06,
2461141.500000000, A.D. 2026-Apr-11 00:00:00.0000, 1.915578607064685E+08, -2.312053608116193E+08, -6.629012313601896E+06,
2461148.500000000, A.D. 2026-Apr-18 00:00:00.0000, 2.012177541932432E+08, -2.221373615557047E+08, -6.716232085275903E+06,
2461155.500000000, A.D. 2026-Apr-25 00:00:00.0000, 2.105152117896472E+08, -2.126692900965403E+08, -6.791354239364266E+06,
2461162.500000000, A.D. 2026-May-02 00:00:00.0000, 2.194316619643693E+08, -2.028163537090933E+08, -6.854184621857896E+06,
2461169.500000000, A.D. 2026-May-09 00:00:00.0000, 2.279492393329167E+08, -1.925947855901208E+08, -6.904555616468012E+06,
2461176.500000000, A.D. 2026-May-16 00:00:00.0000, 2.360508554877491E+08, -1.820218074114253E+08, -6.942327191790305E+06,
2461183.500000000, A.D. 2026-May-23 00:00:00.0000, 2.437202679521893E+08, -1.711155849222859E+08, -6.967387798250496E+06,
2461190.500000000, A.D. 2026-May-30 00:00:00.0000, 2.509421445716475E+08, -1.598951764774088E+08, -6.979654887488097E+06,
2461197.500000000, A.D. 2026-Jun-06 00:00:00.0000, 2.577021224253485E+08, -1.483804780260440E+08, -6.979075284138888E+06,
2461204.500000000, A.D. 2026-Jun-13 00:00:00.0000, 2.639868643525594E+08, -1.365921646897248E+08, -6.965625723068684E+06,
2461211.500000000, A.D. 2026-Jun-20 00:00:00.0000, 2.697841120633926E+08, -1.245516263997248E+08, -6.939313261199631E+06,
2461218.500000000, A.D. 2026-Jun-27 00:00:00.0000, 2.750827336541841E+08, -1.122808983980158E+08, -6.900175431758516E+06,
2461225.500000000, A.D. 2026-Jul-04 00:00:00.0000, 2.798727650986792E+08, -9.980258789713731E+07, -6.848280201990522E+06,
2461232.500000000, A.D. 2026-Jul-11 00:00:00.0000, 2.841454456017859E+08, -8.713979759972799E+07, -6.783725768017977E+06,
2461239.500000000, A.D. 2026-Jul-18 00:00:00.0000, 2.878932466102371E+08, -7.431604666090260E+07, -6.706640194691319E+06,
2461246.500000000, A.D. 2026-Jul-25 00:00:00.0000, 2.911098942805786E+08, -6.135518973074652E+07, -6.617180905674189E+06,
2461253.500000000, A.D. 2026-Aug-01 00:00:00.0000, 2.937903853059654E+08, -4.828133478714234E+07, -6.515534037178794E+06,
2461260.500000000, A.D. 2026-Aug-08 00:00:00.0000, 2.959309962449179E+08, -3.511876046870417E+07, -6.401913685176453E+06,
2461267.500000000, A.D. 2026-Aug-15 00:00:00.0000, 2.975292867675664E+08, -2.189183312576299E+07, -6.276561056194271E+06,
2461274.500000000, A.D. 2026-Aug-22 00:00:00.0000, 2.985840961459075E+08, -8.624923017942004E+06, -6.139743361048648E+06,
2461281.500000000, A.D. 2026-Aug-29 00:00:00.0000, 2.990955308763340E+08, 4.657678330449954E+06, -5.991752363846332E+06,
$$EOE